STARLINK-1007           
1 44713U 19074A   24211.94319379  .00097091  00000+0  76256-3 0  9999
2 44713  53.0524 296.4296 0001482  36.5172 323.5946 15.70766979260284
STARLINK-1008           
1 44714U 19074B   24212.53482649  .00007531  00000+0  52385-3 0  9994
2 44714  53.0557 302.4581 0001153  78.2136 281.8982 15.06407424260422
STARLINK-1009           
1 44715U 19074C   24211.59490003  .00002932  00000+0  21558-3 0  9991
2 44715  53.0580 306.6734 0001342 109.4807 250.6327 15.06408526260103
STARLINK-1010           
1 44716U 19074D   24212.54220110  .00002750  00000+0  20343-3 0  9997
2 44716  53.0555 302.4234 0001746  92.8096 267.3093 15.06399846260400
STARLINK-1011           
1 44717U 19074E   24211.67783668  .00014658  00000+0  10003-2 0  9994
2 44717  53.0548 326.3048 0001309  74.0635 286.0498 15.06422047259840
STARLINK-1012           
1 44718U 19074F   24212.51270859  .00005885  00000+0  41369-3 0  9994
2 44718  53.0551 302.5574 0001092 105.6339 254.4770 15.06394097260416
STARLINK-1013           
1 44719U 19074G   24211.59121732  .00003801  00000+0  27391-3 0  9992
2 44719  53.0565 306.6986 0001729  94.6686 265.4500 15.06405133261231
STARLINK-1014           
1 44720U 19074H   24211.98208426  .00020328  00000+0  11959-2 0  9998
2 44720  53.0539 301.8962 0002294  83.1836 276.9416 15.11644143260383
STARLINK-1015           
1 44721U 19074J   24211.95364219  .00000795  00000+0  73745-4 0  9998
2 44721  53.0535 305.3068 0001578  73.6475 286.4687 15.05574090260329
STARLINK-1017           
1 44723U 19074L   24211.68338126 -.00000343  00000+0 -41309-5 0  9991
2 44723  53.0547 306.2801 0001397  97.3349 262.7799 15.06390489260129
STARLINK-1019           
1 44724U 19074M   24211.97827467  .00018414  00000+0  12521-2 0  9992
2 44724  53.0543 304.9582 0001572  75.7584 284.3579 15.06393366260339
STARLINK-1020           
1 44725U 19074N   24212.58089897  .00016194  00000+0  11031-2 0  9996
2 44725  53.0548 322.2538 0002371  94.2664 265.8596 15.06413841260145
STARLINK-1021           
1 44726U 19074P   24212.43899815  .00003458  00000+0  25101-3 0  9993
2 44726  53.0550 302.8894 0001372  74.5879 285.5262 15.06392168260403
STARLINK-1027           
1 44732U 19074V   24212.03906733  .00004637  00000+0  33008-3 0  9999
2 44732  53.0551 324.6911 0002164  91.5589 268.5648 15.06393567260065
STARLINK-1028           
1 44733U 19074W   24212.43531147  .00002178  00000+0  16514-3 0  9998
2 44733  53.0537 302.9094 0001297  75.2226 284.8907 15.06387053260404
STARLINK-1029           
1 44734U 19074X   24212.18465946  .00000333  00000+0  41261-4 0  9993
2 44734  53.0545 224.0269 0001343  94.5596 265.5547 15.06396925261469
STARLINK-1030           
1 44735U 19074Y   24212.57721461  .00016041  00000+0  10933-2 0  9997
2 44735  53.0553 322.2661 0002315  95.2283 264.8970 15.06401317260145
STARLINK-1031           
1 44736U 19074Z   24211.72943908  .00018472  00000+0  12546-2 0  9998
2 44736  53.0554 326.0761 0001366  95.7901 264.3244 15.06433912260029
STARLINK-1032           
1 44737U 19074AA  24212.00589122  .00004231  00000+0  30276-3 0  9994
2 44737  53.0553 324.8302 0002100  82.0958 278.0269 15.06401691260066
STARLINK-1035           
1 44740U 19074AD  24211.80314272 -.00000224  00000+0  38271-5 0  9991
2 44740  53.0557 325.7526 0001156  77.3397 282.7721 15.06430926259860
STARLINK-1036           
1 44741U 19074AE  24212.01326225  .00003060  00000+0  22422-3 0  9996
2 44741  53.0573 324.7984 0001501  93.9106 266.2054 15.06396969260060
STARLINK-1038           
1 44743U 19074AG  24212.06302643  .00003446  00000+0  25010-3 0  9995
2 44743  53.0554 344.5733 0001929  64.0757 296.0430 15.06404652259794
STARLINK-1039           
1 44744U 19074AH  24212.40581723 -.00003114  00000+0 -19033-3 0  9994
2 44744  53.0550 343.0427 0001104  97.0110 263.1005 15.06384547259848
STARLINK-1041           
1 44746U 19074AK  24212.25001157  .00149069  00000+0  89669-3 0  9997
2 44746  53.0512 308.2717 0006957 348.8986 224.9512 15.76754552260318
STARLINK-1042           
1 44747U 19074AL  24211.71887495  .00008505  00000+0  41231-3 0  9997
2 44747  53.0572 336.6758 0003298 146.0293 214.0913 15.19313953259719
STARLINK-1043           
1 44748U 19074AM  24211.78656749  .00015266  00000+0  10409-2 0  9995
2 44748  53.0569 345.8158 0001258 103.8502 256.2627 15.06421558259582
STARLINK-1046           
1 44751U 19074AQ  24212.06670668  .00000526  00000+0  54222-4 0  9993
2 44751  53.0559 344.5570 0002484  72.4581 287.6679 15.06403158259793
STARLINK-1047           
1 44752U 19074AR  24212.02063260  .00004784  00000+0  33990-3 0  9992
2 44752  53.0546 324.7632 0001822  83.1411 276.9785 15.06396281260064
STARLINK-1048           
1 44753U 19074AS  24211.95981502  .00001479  00000+0  11814-3 0  9991
2 44753  53.0552 305.0386 0001064  88.4406 271.6705 15.06400791260336
STARLINK-1052           
1 44757U 19074AW  24212.53518817  .00078854  00000+0  27340-2 0  9996
2 44757  53.0373 298.3332 0004771 338.6905  21.3894 15.29131234260481
STARLINK-1053           
1 44758U 19074AX  24211.71654830  .00006777  00000+0  47310-3 0  9997
2 44758  53.0561 346.2151 0001506 107.8551 252.2603 15.06424692259578
STARLINK-1054           
1 44759U 19074AY  24212.09618836  .00010391  00000+0  71532-3 0  9996
2 44759  53.0548 344.4267 0000521 243.0883 117.0053 15.06407011259808
STARLINK-1055           
1 44760U 19074AZ  24212.45926886  .00108599  00000+0  27574-2 0  9999
2 44760  53.0123 282.8147 0004633 346.4626  13.6251 15.38813060260704
STARLINK-1056           
1 44761U 19074BA  24212.09251438  .00003926  00000+0  28243-3 0  9997
2 44761  53.0570 344.4442 0001150  78.4902 281.6216 15.06380620259807
STARLINK-1057           
1 44762U 19074BB  24212.02800669  .00000059  00000+0  22907-4 0  9993
2 44762  53.0552 324.7299 0001954  86.9239 273.1974 15.06388360260064
STARLINK-1058           
1 44763U 19074BC  24212.08148642  .00006328  00000+0  44322-3 0  9995
2 44763  53.0526 344.8380 0000332 114.7190 245.3833 15.06405134259797
STARLINK-1059           
1 44764U 19074BD  24212.00001157  .00154935  00000+0  29865-2 0  9999
2 44764  53.0752 241.7116 0005754 332.1492  32.4256 15.46808337261260
STARLINK-1060           
1 44765U 19074BE  24212.04274493  .00018078  00000+0  12296-2 0  9996
2 44765  53.0543 324.6652 0001591  94.0096 266.1075 15.06393758260068
STARLINK-1061           
1 44766U 19074BF  24212.10725328  .00002283  00000+0  17212-3 0  9997
2 44766  53.0563 344.3802 0001748  95.4160 264.7029 15.06403665259800
STARLINK-1062           
1 44767U 19074BG  24212.08891265  .00008406  00000+0  58290-3 0  9993
2 44767  53.0556 345.0398 0001182  86.2354 273.8770 15.06378855259790
STARLINK-1063           
1 44768U 19074BH  24211.72390896  .00005463  00000+0  38520-3 0  9992
2 44768  53.0563 346.0959 0001446  98.5160 261.5993 15.06418562259585
STARLINK-1067           
1 44771U 19074BL  24212.11093547  .00007897  00000+0  54838-3 0  9996
2 44771  53.0535 344.3616 0001731  75.4274 284.6907 15.06404981259802
STARLINK-1068           
1 44772U 19074BM  24212.56614281 -.00005866  00000+0 -37532-3 0  9998
2 44772  53.0548 322.3173 0001272  84.8359 275.2775 15.06392678260146
STARLINK-1073           
1 44914U 20001A   24211.98564343 -.00007358  00000+0 -47623-3 0  9996
2 44914  53.0544 104.9263 0001225  89.1410 270.9720 15.06349229251267
STARLINK-1084           
1 44915U 20001B   24212.41319995  .00005327  00000+0  37620-3 0  9995
2 44915  53.0542 103.0017 0001354  86.2112 273.9032 15.06401429251331
STARLINK-1098           
1 44917U 20001D   24211.95245669  .00017593  00000+0  11973-2 0  9991
2 44917  53.0529 105.0699 0001348  89.3198 270.7946 15.06392088251268
STARLINK-1099           
1 44918U 20001E   24212.25001157  .00363960  60566-4  11598-2 0  9991
2 44918  53.0405   2.3269 0005110 278.8473  21.3441 15.90609993253469
STARLINK-1102           
1 44920U 20001G   24211.82673328  .00020414  00000+0  56461-3 0  9996
2 44920  53.0520  35.3833 0004904 107.7890 252.3648 15.37007995252241
STARLINK-1103           
1 44921U 20001H   24211.99572355  .00000452  00000+0  49244-4 0  9995
2 44921  53.0529 104.8345 0001523 105.3607 254.7551 15.06406054251248
STARLINK-1104           
1 44922U 20001J   24211.96719589  .00017573  00000+0  11957-2 0  9995
2 44922  53.0537 105.0102 0001402  75.1099 285.0045 15.06399528251261
STARLINK-1106           
1 44923U 20001K   24211.84777754  .00029757  00000+0  95786-3 0  9991
2 44923  53.0162  52.9808 0001560 349.6120  10.4847 15.31997255251986
STARLINK-1112           
1 44925U 20001M   24211.93033103 -.00001715  00000+0 -96250-4 0  9990
2 44925  53.0543 105.1670 0001274 109.7789 250.3337 15.06398953251258
STARLINK-1113           
1 44926U 20001N   24212.58334491  .00208677  00000+0  16262-2 0  9994
2 44926  53.0486  56.4678 0002681 158.9390  30.4679 15.70551517252680
STARLINK-1114           
1 44927U 20001P   24211.94138769  .00001826  00000+0  14147-3 0  9992
2 44927  53.0531 105.1195 0001272  97.0622 263.0512 15.06397805251264
STARLINK-1123           
1 44930U 20001S   24211.88979535  .00017916  00000+0  12189-2 0  9993
2 44930  53.0530 105.3539 0001450  87.8628 272.2527 15.06390850251252
STARLINK-1128           
1 44931U 20001T   24212.58334491  .00793326  27656-3  21477-2 0  9994
2 44931  53.0253  21.9511 0011155 292.2621 216.8655 15.93606828253222
STARLINK-1130 (DARKSAT) 
1 44932U 20001U   24211.94508158  .00002228  00000+0  16844-3 0  9994
2 44932  53.0553 105.1075 0001500 100.8136 259.3022 15.06400268252496
STARLINK-1144           
1 44933U 20001V   24211.97088153  .00014387  00000+0  98278-3 0  9996
2 44933  53.0536 104.9942 0001350 102.9530 257.1610 15.06400418252555
STARLINK-1071           
1 44934U 20001W   24211.91743763  .00012055  00000+0  82679-3 0  9994
2 44934  53.0538  85.2308 0001489 100.0550 260.0607 15.06400574251538
